ORBCOMM FM20            
1 25416U 98046D   24196.52938999  .00001710  00000+0  63845-3 0  9998
2 25416  44.9963 338.3552 0001229 213.8028 146.2741 14.35445633355716
ORBCOMM FM16            
1 25417U 98046E   24196.58078646  .00002543  00000+0  90624-3 0  9999
2 25417  44.9953 333.3704 0002012  43.1303 316.9702 14.36507441355665
ORBCOMM FM15            
1 25418U 98046F   24196.55020137  .00002265  00000+0  81699-3 0  9992
2 25418  44.9984 337.7324 0001731  50.3543 309.7457 14.36219656355664
ORBCOMM FM14            
1 25419U 98046G   24196.56649237  .00002655  00000+0  94578-3 0  9995
2 25419  44.9976 336.6725 0000483   9.6026 350.4830 14.36415986355623
ORBCOMM FM13            
1 25420U 98046H   24196.57659662  .00001982  00000+0  72916-3 0  9995
2 25420  44.9995 341.8773 0002988  17.5891 342.5060 14.35642772354683
ORBCOMM FM21            
1 25475U 98053A   24196.32240806  .00001738  00000+0  64702-3 0  9995
2 25475  45.0098  67.4964 0000956   7.2055 352.8806 14.35536627348667
ORBCOMM FM22            
1 25476U 98053B   24196.34450567  .00002000  00000+0  72878-3 0  9991
2 25476  45.0090  64.3993 0002264 337.2062  22.8685 14.36112926348668
ORBCOMM FM23            
1 25477U 98053C   24196.34845385  .00001644  00000+0  61381-3 0  9998
2 25477  45.0097  69.7760 0001781 341.1701  18.9081 14.35588554348810
